NORAD_CAT_ID,OBJECT_NAME,OBJECT_TYPE,EPOCH,MEAN_MOTION,ECCENTRICITY,INCLINATION,RA_OF_ASC_NODE,ARG_OF_PERICENTER,MEAN_ANOMALY,BSTAR,MEAN_MOTION_DOT,MEAN_MOTION_DDOT,TLE_LINE0,TLE_LINE1,TLE_LINE2,SEMIMAJOR_AXIS,PERIOD,APOGEE,PERIGEE,DECAYED
53137.0,STARLINK-4145,PAYLOAD,2022-07-30 22:00:00,15.73197671,0.0003513,53.2183,340.8978,297.6438,70.445,0.00015605,0.00021337,0.0,0 STARLINK-4145,1 53137U 22083F   22211.91667824  .00021337  00000-0  15605-3 0  9991,2 53137  53.2183 340.8978 0003513 297.6438  70.4450 15.73197671  1304,6727.901999999999,91.533,352.13,347.403,0.0
53137.0,STARLINK-4145,PAYLOAD,2022-07-31 14:00:01,15.73213549,0.0003312,53.2188,337.5986,302.8038,243.1692,-0.00037215,-0.00052574,0.0,0 STARLINK-4145,1 53137U 22083F   22212.58334491 -.00052574  00000-0 -37215-3 0  9996,2 53137  53.2188 337.5986 0003312 302.8038 243.1692 15.73213549  2854,6727.857,91.532,351.95,347.49300000000005,0.0
53137.0,STARLINK-4145,PAYLOAD,2022-07-31 20:00:01,15.73166653,0.0003387,53.2186,336.3623,305.8045,216.8681,0.00045249,0.00063286,0.0,0 STARLINK-4145,1 53137U 22083F   22212.83334491  .00063286  00000-0  45249-3 0  9990,2 53137  53.2186 336.3623 0003387 305.8045 216.8681 15.73166653  2892,6727.99,91.535,352.134,347.576,0.0
53137.0,STARLINK-4145,PAYLOAD,2022-07-31 22:00:00,15.73199425,0.0003392,53.2184,335.9494,305.4983,329.3927,5.5624e-05,7.192e-05,0.0,0 STARLINK-4145,1 53137U 22083F   22212.91667824  .00007192  00000-0  55624-4 0  9991,2 53137  53.2184 335.9494 0003392 305.4983 329.3927 15.73199425  1305,6727.897,91.533,352.0440000000001,347.48,0.0
53137.0,STARLINK-4145,PAYLOAD,2022-08-01 14:00:01,15.73223897,0.0003263999999999,53.2183,332.6509,309.9349,142.8429,-0.00046178,-0.00065019,0.0,0 STARLINK-4145,1 53137U 22083F   22213.58334491 -.00065019  00000-0 -46178-3 0  9993,2 53137  53.2183 332.6509 0003264 309.9349 142.8429 15.73223897  3014,6727.8269999999975,91.532,351.88800000000015,347.496,0.0
53137.0,STARLINK-4145,PAYLOAD,2022-08-01 22:00:00,15.73204458,0.0003314,53.2182,331.0015,312.574,229.1268,-9.675200000000002e-07,-7.59e-06,0.0,0 STARLINK-4145,1 53137U 22083F   22213.91667824 -.00000759  00000-0 -96752-6 0  9995,2 53137  53.2182 331.0015 0003314 312.5740 229.1268 15.73204458  3066,6727.882,91.533,351.977,347.51800000000014,0.0
53137.0,STARLINK-4145,PAYLOAD,2022-08-02 14:00:01,15.73198142,0.0003197,53.2186,327.7025,319.5137,40.072,-0.00028429,-0.00040339,0.0,0 STARLINK-4145,1 53137U 22083F   22214.58334491 -.00040339  00000-0 -28429-3 0  9991,2 53137  53.2186 327.7025 0003197 319.5137  40.0720 15.73198142  3165,6727.9,91.533,351.916,347.615,0.0
53137.0,STARLINK-4145,PAYLOAD,2022-08-03 04:00:00,15.73108168,0.0003089,53.2182,324.8148,325.3217,99.7221,0.00050597,0.00070721,0.0,0 STARLINK-4145,1 53137U 22083F   22215.16667824  .00070721  00000-0  50597-3 0  9992,2 53137  53.2182 324.8148 0003089 325.3217  99.7221 15.73108168  3255,6728.156999999997,91.539,352.1,347.944,0.0
53137.0,STARLINK-4145,PAYLOAD,2022-08-03 12:00:00,15.73196095,0.0003146,53.2181,323.1669,331.2391,182.6515,-0.00069728,-0.00097371,0.0,0 STARLINK-4145,1 53137U 22083F   22215.50001157 -.00097371  00000-0 -69728-3 0  9999,2 53137  53.2181 323.1669 0003146 331.2391 182.6515 15.73196095  3318,6727.906,91.533,351.88800000000015,347.655,0.0
53137.0,STARLINK-4145,PAYLOAD,2022-08-03 14:00:01,15.73166482,0.0003184,53.218,322.7552,333.8408,292.2796,-0.00039236,-0.00055265,0.0,0 STARLINK-4145,1 53137U 22083F   22215.58334491 -.00055265  00000-0 -39236-3 0  9994,2 53137  53.2180 322.7552 0003184 333.8408 292.2796 15.73166482  1305,6727.991,91.535,351.99800000000016,347.714,0.0
53137.0,STARLINK-4145,PAYLOAD,2022-08-03 20:00:01,15.73106564,0.0003247,53.2177,321.5181,337.1973,265.5816,0.0012632,0.0017980999999999,0.0,0 STARLINK-4145,1 53137U 22083F   22215.83334491  .00179810  00000-0  12632-2 0  9993,2 53137  53.2177 321.5181 0003247 337.1973 265.5816 15.73106564  3369,6728.1619999999975,91.539,352.211,347.842,0.0
53137.0,STARLINK-4145,PAYLOAD,2022-08-03 22:00:01,15.73175779,0.0003188,53.2178,321.1053,338.4058,16.6362,0.00058712,0.0008252,0.0,0 STARLINK-4145,1 53137U 22083F   22215.91668981  .00082520  00000-0  58712-3 0  9997,2 53137  53.2178 321.1053 0003188 338.4058  16.6362 15.73175779  1303,6727.964,91.535,351.974,347.684,0.0
53137.0,STARLINK-4145,PAYLOAD,2022-08-04 06:00:00,15.73218849,0.0002941,53.2182,319.4542,340.9879,102.9175,0.00040859,0.00057168,0.0,0 STARLINK-4145,1 53137U 22083F   22216.25001157  .00057168  00000-0  40859-3 0  9994,2 53137  53.2182 319.4542 0002941 340.9879 102.9175 15.73218849  3439,6727.840999999999,91.532,351.685,347.728,0.0
53137.0,STARLINK-4145,PAYLOAD,2022-08-04 14:00:01,15.73257026,0.0003251,53.2182,317.8066,344.9838,187.9068,0.00013408,0.00018285,0.0,0 STARLINK-4145,1 53137U 22083F   22216.58334491  .00018285  00000-0  13408-3 0  9997,2 53137  53.2182 317.8066 0003251 344.9838 187.9068 15.73257026  1304,6727.733,91.53,351.785,347.41,0.0
53137.0,STARLINK-4145,PAYLOAD,2022-08-04 20:00:01,15.73307502,0.0003325,53.2179,316.5694,346.7123,162.9219,-0.00060609,-0.00085247,0.0,0 STARLINK-4145,1 53137U 22083F   22216.83334491 -.00085247  00000-0 -60609-3 0  9994,2 53137  53.2179 316.5694 0003325 346.7123 162.9219 15.73307502  3524,6727.589,91.527,351.691,347.217,0.0
53137.0,STARLINK-4145,PAYLOAD,2022-08-04 22:00:00,15.73313903,0.0003249,53.2179,316.1563,346.8838,275.0056,-0.0008883,-0.00124115,0.0,0 STARLINK-4145,1 53137U 22083F   22216.91667824 -.00124115  00000-0 -88830-3 0  9996,2 53137  53.2179 316.1563 0003249 346.8838 275.0056 15.73313903  1305,6727.57,91.527,351.621,347.25,0.0
53137.0,STARLINK-4145,PAYLOAD,2022-08-05 12:00:00,15.73276789,0.0003308999999999,53.2177,313.27,352.5603,335.0711,-0.00031382,-0.00044592,0.0,0 STARLINK-4145,1 53137U 22083F   22217.50001157 -.00044592  00000-0 -31382-3 0  9993,2 53137  53.2177 313.2700 0003309 352.5603 335.0711 15.73276789  3627,6727.676,91.529,351.767,347.315,0.0
53137.0,STARLINK-4145,PAYLOAD,2022-08-05 14:00:01,15.73280697,0.0003372,53.2177,312.858,353.8379,86.1087,-0.00046769,-0.00065997,0.0,0 STARLINK-4145,1 53137U 22083F   22217.58335648 -.00065997  00000-0 -46769-3 0  9993,2 53137  53.2177 312.8580 0003372 353.8379  86.1087 15.73280697  1308,6727.665,91.528,351.7990000000001,347.26199999999994,0.0
53137.0,STARLINK-4145,PAYLOAD,2022-08-05 22:00:00,15.73242436,0.0003362,53.2177,311.2074,356.3999,172.485,-8.5196e-05,-0.00012588,0.0,0 STARLINK-4145,1 53137U 22083F   22217.91667824 -.00012588  00000-0 -85196-4 0  9990,2 53137  53.2177 311.2074 0003362 356.3999 172.4850 15.73242436  1300,6727.774,91.531,351.901,347.37699999999984,0.0
53137.0,STARLINK-4145,PAYLOAD,2022-08-06 12:00:00,15.73197958,0.0003498999999999,53.2179,308.3212,4.4522,230.1171,6.930800000000001e-05,9.116e-05,0.0,0 STARLINK-4145,1 53137U 22083F   22218.50001157  .00009116  00000-0  69308-4 0  9995,2 53137  53.2179 308.3212 0003499   4.4522 230.1171 15.73197958  3787,6727.901,91.533,352.12,347.412,0.0
53137.0,STARLINK-4145,PAYLOAD,2022-08-06 14:00:01,15.73199768,0.0003575,53.2181,307.9092,5.1336,341.6669,7.9623e-05,0.00010568,0.0,0 STARLINK-4145,1 53137U 22083F   22218.58334491  .00010568  00000-0  79623-4 0  9997,2 53137  53.2181 307.9092 0003575   5.1336 341.6669 15.73199768  1304,6727.896,91.533,352.166,347.356,0.0
53137.0,STARLINK-4145,PAYLOAD,2022-08-06 22:00:00,15.7321812,0.0003558,53.2179,306.2586,6.5033,69.2309,-0.00050755,-0.00071337,0.0,0 STARLINK-4145,1 53137U 22083F   22218.91667824 -.00071337  00000-0 -50755-3 0  9990,2 53137  53.2179 306.2586 0003558   6.5033  69.2309 15.73218120  1309,6727.844,91.532,352.102,347.315,0.0
53137.0,STARLINK-4145,PAYLOAD,2022-08-07 04:00:00,15.73146797,0.0003441999999999,53.2179,305.0206,9.721,42.7034,0.00046576,0.00065119,0.0,0 STARLINK-4145,1 53137U 22083F   22219.16667824  .00065119  00000-0  46576-3 0  9993,2 53137  53.2179 305.0206 0003442   9.7210  42.7034 15.73146797  3885,6728.047,91.536,352.228,347.596,0.0
53137.0,STARLINK-4145,PAYLOAD,2022-08-07 11:24:07,15.73201399,0.0003235,53.2183,303.4931,10.7126,349.3962,4.188600000000001e-05,5.261e-05,0.0,0 STARLINK-4145,1 53137U 22083F   22219.47508927  .00005261  00000-0  41886-4 0  9997,2 53137  53.2183 303.4931 0003235  10.7126 349.3962 15.73201399  3319,6727.891,91.533,351.93300000000005,347.58,0.0
53137.0,STARLINK-4145,PAYLOAD,2022-08-07 22:00:00,15.73267153,0.0003646,53.2177,301.3104,8.0952,334.4087,-0.00069437,-0.00097276,0.0,0 STARLINK-4145,1 53137U 22083F   22219.91667824 -.00097276  00000-0 -69437-3 0  9998,2 53137  53.2177 301.3104 0003646   8.0952 334.4087 15.73267153  1304,6727.704000000002,91.529,352.022,347.116,0.0
53137.0,STARLINK-4145,PAYLOAD,2022-08-08 04:00:00,15.73171829,0.0003553,53.2178,300.0721,8.3486,310.8955,0.00056699,0.00079633,0.0,0 STARLINK-4145,1 53137U 22083F   22220.16667824  .00079633  00000-0  56699-3 0  9998,2 53137  53.2178 300.0721 0003553   8.3486 310.8955 15.73171829  4048,6727.975,91.535,352.231,347.45,0.0
53137.0,STARLINK-4145,PAYLOAD,2022-08-08 14:00:01,15.73262935,0.0003895,53.2181,298.0126,7.0799,153.4321,-7.6271e-05,-0.00011348,0.0,0 STARLINK-4145,1 53137U 22083F   22220.58335648 -.00011348  00000-0 -76271-4 0  9990,2 53137  53.2181 298.0126 0003895   7.0799 153.4321 15.73262935  1302,6727.715999999999,91.53,352.201,346.96,0.0
53137.0,STARLINK-4145,PAYLOAD,2022-08-08 20:00:01,15.73366288,0.0003767,53.2173,296.7717,7.3036,129.954,-0.0021794,-0.00298209,0.0,0 STARLINK-4145,1 53137U 22083F   22220.83335648 -.00298209  00000-0 -21794-2 0  9999,2 53137  53.2173 296.7717 0003767   7.3036 129.9540 15.73366288  4152,6727.420999999999,91.524,351.82,346.75199999999984,0.0
53137.0,STARLINK-4145,PAYLOAD,2022-08-08 22:00:00,15.734991699999998,0.000343,53.2177,296.3582,3.6848,245.7365,-0.0054718,-0.00716161,0.0,0 STARLINK-4145,1 53137U 22083F   22220.91667824 -.00716161  00000-0 -54718-2 0  9996,2 53137  53.2177 296.3582 0003430   3.6848 245.7365 15.73499170  1302,6727.042,91.516,351.215,346.6,0.0
